STARLINK-30107          
1 56287U 23056B   26068.65769541 -.00000122  00000+0  50864-5 0  9992
2 56287  43.0025 191.3282 0001075 253.2800 106.7934 15.27572483160295
FLOCK 4G-5              
1 62663U 25009BG  26068.45638436  .00011278  00000+0  40688-3 0  9997
2 62663  97.4058 151.2478 0002094 314.5072  45.5996 15.28679529 63699
